{
  "type": "FeatureCollection",
  "features": [
    {
      "type": "Feature",
      "properties": {
        "norad_id": 38755,
        "name": "SPOT 6",
        "group": "resource",
        "lat": 10.33906323715518,
        "lon": 59.58711691748871,
        "alt_km": 699.0836714325169,
        "timestamp": "2025-12-22T11:33:20.086277+00:00",
        "meta_object_name": "SPOT 6",
        "meta_object_id": "2012-047A",
        "meta_epoch": "2025-12-22T04:55:19.177248",
        "meta_mean_motion": 14.58539191,
        "meta_eccentricity": 0.0001292,
        "meta_inclination": 98.1565,
        "meta_ra_of_asc_node": 60.8152,
        "meta_arg_of_pericenter": 78.7536,
        "meta_mean_anomaly": 281.3809,
        "meta_ephemeris_type": 0,
        "meta_classification_type": "U",
        "meta_norad_cat_id": 38755,
        "meta_element_set_no": 999,
        "meta_rev_at_epoch": 70725,
        "meta_bstar": 3.0499e-05,
        "meta_mean_motion_dot": 9.6e-07,
        "meta_mean_motion_ddot": 0,
        "tle_line1": "1 38755U 12047A   25356.20508307  .00000096  00000+0  30499-4 0  9991",
        "tle_line2": "2 38755  98.1565  60.8152 0001292  78.7536 281.3809 14.58539191707254"
      },
      "geometry": {
        "type": "Point",
        "coordinates": [
          59.58711691748871,
          10.33906323715518
        ]
      }
    },
    {
      "type": "Feature",
      "properties": {
        "norad_id": 39019,
        "name": "PLEIADES 1B",
        "group": "resource",
        "lat": -81.72739713878595,
        "lon": 167.41503591715775,
        "alt_km": 705.99043755824,
        "timestamp": "2025-12-22T11:33:20.086288+00:00",
        "meta_object_name": "PLEIADES 1B",
        "meta_object_id": "2012-068A",
        "meta_epoch": "2025-12-22T05:23:15.357120",
        "meta_mean_motion": 14.58559996,
        "meta_eccentricity": 0.0001154,
        "meta_inclination": 98.179,
        "meta_ra_of_asc_node": 68.7267,
        "meta_arg_of_pericenter": 86.105,
        "meta_mean_anomaly": 274.0281,
        "meta_ephemeris_type": 0,
        "meta_classification_type": "U",
        "meta_norad_cat_id": 39019,
        "meta_element_set_no": 999,
        "meta_rev_at_epoch": 69505,
        "meta_bstar": 3.6014e-05,
        "meta_mean_motion_dot": 1.22e-06,
        "meta_mean_motion_ddot": 0,
        "tle_line1": "1 39019U 12068A   25356.22448330  .00000122  00000+0  36014-4 0  9998",
        "tle_line2": "2 39019  98.1790  68.7267 0001154  86.1050 274.0281 14.58559996695055"
      },
      "geometry": {
        "type": "Point",
        "coordinates": [
          167.41503591715775,
          -81.72739713878595
        ]
      }
    },
    {
      "type": "Feature",
      "properties": {
        "norad_id": 39030,
        "name": "GOKTURK 2",
        "group": "resource",
        "lat": -10.029258851050487,
        "lon": -160.97554096695075,
        "alt_km": 648.8228205031464,
        "timestamp": "2025-12-22T11:33:20.086313+00:00",
        "meta_object_name": "GOKTURK 2",
        "meta_object_id": "2012-073A",
        "meta_epoch": "2025-12-22T03:27:44.882208",
        "meta_mean_motion": 14.75303699,
        "meta_eccentricity": 0.0001331,
        "meta_inclination": 97.6884,
        "meta_ra_of_asc_node": 197.335,
        "meta_arg_of_pericenter": 106.9456,
        "meta_mean_anomaly": 253.19,
        "meta_ephemeris_type": 0,
        "meta_classification_type": "U",
        "meta_norad_cat_id": 39030,
        "meta_element_set_no": 999,
        "meta_rev_at_epoch": 69840,
        "meta_bstar": 0.00010993,
        "meta_mean_motion_dot": 6.98e-06,
        "meta_mean_motion_ddot": 0,
        "tle_line1": "1 39030U 12073A   25356.14426947  .00000698  00000+0  10993-3 0  9993",
        "tle_line2": "2 39030  97.6884 197.3350 0001331 106.9456 253.1900 14.75303699698400"
      },
      "geometry": {
        "type": "Point",
        "coordinates": [
          -160.97554096695075,
          -10.029258851050487
        ]
      }
    },
    {
      "type": "Feature",
      "properties": {
        "norad_id": 39084,
        "name": "LANDSAT 8",
        "group": "resource",
        "lat": 27.84799484823756,
        "lon": 60.03830947645282,
        "alt_km": 700.9730415717386,
        "timestamp": "2025-12-22T11:33:20.086325+00:00",
        "meta_object_name": "LANDSAT 8",
        "meta_object_id": "2013-008A",
        "meta_epoch": "2025-12-22T03:11:11.061888",
        "meta_mean_motion": 14.57111793,
        "meta_eccentricity": 0.0001063,
        "meta_inclination": 98.2059,
        "meta_ra_of_asc_node": 64.0671,
        "meta_arg_of_pericenter": 91.6412,
        "meta_mean_anomaly": 268.4908,
        "meta_ephemeris_type": 0,
        "meta_classification_type": "U",
        "meta_norad_cat_id": 39084,
        "meta_element_set_no": 999,
        "meta_rev_at_epoch": 67211,
        "meta_bstar": 9.989e-05,
        "meta_mean_motion_dot": 4.05e-06,
        "meta_mean_motion_ddot": 0,
        "tle_line1": "1 39084U 13008A   25356.13276692  .00000405  00000+0  99890-4 0  9990",
        "tle_line2": "2 39084  98.2059  64.0671 0001063  91.6412 268.4908 14.57111793672119"
      },
      "geometry": {
        "type": "Point",
        "coordinates": [
          60.03830947645282,
          27.84799484823756
        ]
      }
    },
    {
      "type": "Feature",
      "properties": {
        "norad_id": 39086,
        "name": "SARAL",
        "group": "resource",
        "lat": -60.21117756426842,
        "lon": -14.952157848751561,
        "alt_km": 791.5006891183739,
        "timestamp": "2025-12-22T11:33:20.086344+00:00",
        "meta_object_name": "SARAL",
        "meta_object_id": "2013-009A",
        "meta_epoch": "2025-12-22T03:43:43.580928",
        "meta_mean_motion": 14.327602,
        "meta_eccentricity": 0.0002963,
        "meta_inclination": 98.5502,
        "meta_ra_of_asc_node": 179.9629,
        "meta_arg_of_pericenter": 90.9355,
        "meta_mean_anomaly": 269.2169,
        "meta_ephemeris_type": 0,
        "meta_classification_type": "U",
        "meta_norad_cat_id": 39086,
        "meta_element_set_no": 999,
        "meta_rev_at_epoch": 67025,
        "meta_bstar": 5.9033e-05,
        "meta_mean_motion_dot": 1.17e-06,
        "meta_mean_motion_ddot": 0,
        "tle_line1": "1 39086U 13009A   25356.15536552  .00000117  00000+0  59033-4 0  9994",
        "tle_line2": "2 39086  98.5502 179.9629 0002963  90.9355 269.2169 14.32760200670251"
      },
      "geometry": {
        "type": "Point",
        "coordinates": [
          -14.952157848751561,
          -60.21117756426842
        ]
      }
    },
    {
      "type": "Feature",
      "properties": {
        "norad_id": 39150,
        "name": "GAOFEN-1",
        "group": "resource",
        "lat": 67.4537066145959,
        "lon": -93.40795905668638,
        "alt_km": 620.8945605492509,
        "timestamp": "2025-12-22T11:33:20.086366+00:00",
        "meta_object_name": "GAOFEN-1",
        "meta_object_id": "2013-018A",
        "meta_epoch": "2025-12-22T04:32:56.556672",
        "meta_mean_motion": 14.76495199,
        "meta_eccentricity": 0.0018458,
        "meta_inclination": 97.9321,
        "meta_ra_of_asc_node": 66.6819,
        "meta_arg_of_pericenter": 114.3575,
        "meta_mean_anomaly": 245.9564,
        "meta_ephemeris_type": 0,
        "meta_classification_type": "U",
        "meta_norad_cat_id": 39150,
        "meta_element_set_no": 999,
        "meta_rev_at_epoch": 68212,
        "meta_bstar": 9.0578e-05,
        "meta_mean_motion_dot": 5.81e-06,
        "meta_mean_motion_ddot": 0,
        "tle_line1": "1 39150U 13018A   25356.18954348  .00000581  00000+0  90578-4 0  9990",
        "tle_line2": "2 39150  97.9321  66.6819 0018458 114.3575 245.9564 14.76495199682128"
      },
      "geometry": {
        "type": "Point",
        "coordinates": [
          -93.40795905668638,
          67.4537066145959
        ]
      }
    },
    {
      "type": "Feature",
      "properties": {
        "norad_id": 39160,
        "name": "VNREDSAT 1",
        "group": "resource",
        "lat": 51.57049582589691,
        "lon": -118.45873967068307,
        "alt_km": 671.9110067038982,
        "timestamp": "2025-12-22T11:33:20.086387+00:00",
        "meta_object_name": "VNREDSAT 1",
        "meta_object_id": "2013-021B",
        "meta_epoch": "2025-12-22T04:25:04.122336",
        "meta_mean_motion": 14.64934875,
        "meta_eccentricity": 0.0001196,
        "meta_inclination": 97.9363,
        "meta_ra_of_asc_node": 51.128,
        "meta_arg_of_pericenter": 83.8919,
        "meta_mean_anomaly": 276.2421,
        "meta_ephemeris_type": 0,
        "meta_classification_type": "U",
        "meta_norad_cat_id": 39160,
        "meta_element_set_no": 999,
        "meta_rev_at_epoch": 67437,
        "meta_bstar": 6.0077e-05,
        "meta_mean_motion_dot": 2.76e-06,
        "meta_mean_motion_ddot": 0,
        "tle_line1": "1 39160U 13021B   25356.18407549  .00000276  00000+0  60077-4 0  9993",
        "tle_line2": "2 39160  97.9363  51.1280 0001196  83.8919 276.2421 14.64934875674372"
      },
      "geometry": {
        "type": "Point",
        "coordinates": [
          -118.45873967068307,
          51.57049582589691
        ]
      }
    }
  ]
}